[{"OBJECT_NAME":"YAOGAN-30 04B","OBJECT_ID":"2017-085B","EPOCH":"2026-03-09T23:08:06.218304","MEAN_MOTION":15.02136468,"ECCENTRICITY":0.00051709,"INCLINATION":34.9961,"RA_OF_ASC_NODE":34.6701,"ARG_OF_PERICENTER":206.1156,"MEAN_ANOMALY":153.9292,"EPHEMERIS_TYPE":0,"CLASSIFICATION_TYPE":"U","NORAD_CAT_ID":43082,"ELEMENT_SET_NO":999,"REV_AT_EPOCH":44776,"BSTAR":0.0003202307,"MEAN_MOTION_DOT":4.272e-5,"MEAN_MOTION_DDOT":0},{"OBJECT_NAME":"STARLINK-6150","OBJECT_ID":"2023-090U","EPOCH":"2026-03-09T22:38:45.216960","MEAN_MOTION":15.02535031,"ECCENTRICITY":0.0001141,"INCLINATION":43.0031,"RA_OF_ASC_NODE":273.0916,"ARG_OF_PERICENTER":269.8911,"MEAN_ANOMALY":90.18,"EPHEMERIS_TYPE":0,"CLASSIFICATION_TYPE":"U","NORAD_CAT_ID":57119,"ELEMENT_SET_NO":999,"REV_AT_EPOCH":15045,"BSTAR":3.5462456e-5,"MEAN_MOTION_DOT":2.75e-6,"MEAN_MOTION_DDOT":0}]
